start=new Date('2023-04-25T00:00:00.000Z').valueOf();
sats=[{"MEAN_MOTION_DDOT":"0.0000000000000","TLE_LINE2":"2 52275  53.2153 143.5448 0001211  93.3549 266.7582 15.08895954 55829","REV_AT_EPOCH":"5582","OBJECT_ID":"2022-041Q","APOAPSIS":"540.412","REF_FRAME":"TEME","FILE":"3893330","DECAY_DATE":null,"GP_ID":"230700616","OBJECT_TYPE":"PAYLOAD","BSTAR":"0.00164680000000","EPHEMERIS_TYPE":"0","NORAD_CAT_ID":"52275","SEMIMAJOR_AXIS":"6917.709","ELEMENT_SET_NO":"999","LAUNCH_DATE":"2022-04-21","CLASSIFICATION_TYPE":"U","MEAN_ANOMALY":"266.7582","COUNTRY_CODE":"US","TLE_LINE1":"1 52275U 22041Q   23114.51237611  .00026058  00000-0  16468-2 0  9995","ECCENTRICITY":"0.00012110","RA_OF_ASC_NODE":"143.5448","SITE":"AFETR","TIME_SYSTEM":"UTC","CENTER_NAME":"EARTH","PERIAPSIS":"538.737","MEAN_ELEMENT_THEORY":"SGP4","ARG_OF_PERICENTER":"93.3549","PERIOD":"95.434","RCS_SIZE":"LARGE","MEAN_MOTION":"15.08895954","INCLINATION":"53.2153","OBJECT_NAME":"STARLINK-3784","EPOCH":"2023-04-24T12:17:49.295904","MEAN_MOTION_DOT":"0.00026058"},{"PERIAPSIS":"538.523","ARG_OF_PERICENTER":"79.1233","MEAN_ELEMENT_THEORY":"SGP4","RA_OF_ASC_NODE":"143.2981","SITE":"AFETR","TIME_SYSTEM":"UTC","CENTER_NAME":"EARTH","INCLINATION":"53.2157","OBJECT_NAME":"STARLINK-3778","MEAN_MOTION":"15.08871592","EPOCH":"2023-04-24T13:37:18.346944","MEAN_MOTION_DOT":"0.00006421","PERIOD":"95.436","RCS_SIZE":"LARGE","FILE":"3893330","DECAY_DATE":null,"GP_ID":"230699365","BSTAR":"0.00042081000000","OBJECT_TYPE":"PAYLOAD","NORAD_CAT_ID":"52276","EPHEMERIS_TYPE":"0","MEAN_MOTION_DDOT":"0.0000000000000","OBJECT_ID":"2022-041R","REV_AT_EPOCH":"5583","TLE_LINE2":"2 52276  53.2157 143.2981 0001628  79.1233 280.9943 15.08871592 55839","APOAPSIS":"540.775","REF_FRAME":"TEME","MEAN_ANOMALY":"280.9943","COUNTRY_CODE":"US","ECCENTRICITY":"0.00016280","TLE_LINE1":"1 52276U 22041R   23114.56757346  .00006421  00000-0  42081-3 0  9996","SEMIMAJOR_AXIS":"6917.784","ELEMENT_SET_NO":"999","LAUNCH_DATE":"2022-04-21","CLASSIFICATION_TYPE":"U"},{"REF_FRAME":"TEME","APOAPSIS":"519.348","OBJECT_ID":"2022-041S","REV_AT_EPOCH":"5711","TLE_LINE2":"2 52277  53.2130 140.2109 0006146  10.2910 349.8210 15.16935387 57115","MEAN_MOTION_DDOT":"0.0000000000000","NORAD_CAT_ID":"52277","OBJECT_TYPE":"PAYLOAD","BSTAR":"0.00781030000000","EPHEMERIS_TYPE":"0","GP_ID":"230705038","DECAY_DATE":null,"FILE":"3893452","LAUNCH_DATE":"2022-04-21","CLASSIFICATION_TYPE":"U","ELEMENT_SET_NO":"999","SEMIMAJOR_AXIS":"6893.246","ECCENTRICITY":"0.00061460","TLE_LINE1":"1 52277U 22041S   23114.76042739  .00159112  00000-0  78103-2 0  9991","COUNTRY_CODE":"US","MEAN_ANOMALY":"349.8210","CENTER_NAME":"EARTH","TIME_SYSTEM":"UTC","SITE":"AFETR","RA_OF_ASC_NODE":"140.2109","PERIAPSIS":"510.875","ARG_OF_PERICENTER":"10.2910","MEAN_ELEMENT_THEORY":"SGP4","RCS_SIZE":"LARGE","PERIOD":"94.928","MEAN_MOTION_DOT":"0.00159112","EPOCH":"2023-04-24T18:15:00.926496","OBJECT_NAME":"STARLINK-3787","INCLINATION":"53.2130","MEAN_MOTION":"15.16935387"},{"TLE_LINE2":"2 52278  53.2155 143.3149 0001306 102.5238 257.5900 15.08866956 55836","REV_AT_EPOCH":"5583","OBJECT_ID":"2022-041T","REF_FRAME":"TEME","APOAPSIS":"540.566","MEAN_MOTION_DDOT":"0.0000000000000","GP_ID":"230700365","OBJECT_TYPE":"PAYLOAD","BSTAR":"0.00051167000000","NORAD_CAT_ID":"52278","EPHEMERIS_TYPE":"0","DECAY_DATE":null,"FILE":"3893330","LAUNCH_DATE":"2022-04-21","CLASSIFICATION_TYPE":"U","SEMIMAJOR_AXIS":"6917.798","ELEMENT_SET_NO":"999","COUNTRY_CODE":"US","TLE_LINE1":"1 52278U 22041T   23114.56389673  .00007871  00000-0  51167-3 0  9997","ECCENTRICITY":"0.00013060","MEAN_ANOMALY":"257.5900","TIME_SYSTEM":"UTC","CENTER_NAME":"EARTH","RA_OF_ASC_NODE":"143.3149","SITE":"AFETR","PERIAPSIS":"538.760","MEAN_ELEMENT_THEORY":"SGP4","ARG_OF_PERICENTER":"102.5238","RCS_SIZE":"LARGE","PERIOD":"95.436","EPOCH":"2023-04-24T13:32:00.677472","MEAN_MOTION_DOT":"0.00007871","MEAN_MOTION":"15.08866956","OBJECT_NAME":"STARLINK-3780","INCLINATION":"53.2155"},{"EPOCH":"2023-04-24T18:14:28.630176","MEAN_MOTION_DOT":"0.00107325","INCLINATION":"53.2158","OBJECT_NAME":"STARLINK-3686","MEAN_MOTION":"15.19042304","RCS_SIZE":"LARGE","PERIOD":"94.797","PERIAPSIS":"505.766","MEAN_ELEMENT_THEORY":"SGP4","ARG_OF_PERICENTER":"26.6780","TIME_SYSTEM":"UTC","CENTER_NAME":"EARTH","RA_OF_ASC_NODE":"137.4976","SITE":"AFETR","COUNTRY_CODE":"US","ECCENTRICITY":"0.00043120","TLE_LINE1":"1 52279U 22041U   23114.76005359  .00107325  00000-0  50002-2 0  9997","MEAN_ANOMALY":"333.4437","LAUNCH_DATE":"2022-04-21","CLASSIFICATION_TYPE":"U","SEMIMAJOR_AXIS":"6886.871","ELEMENT_SET_NO":"999","GP_ID":"230705538","BSTAR":"0.00500020000000","OBJECT_TYPE":"PAYLOAD","NORAD_CAT_ID":"52279","EPHEMERIS_TYPE":"0","FILE":"3893452","DECAY_DATE":null,"REV_AT_EPOCH":"5715","OBJECT_ID":"2022-041U","TLE_LINE2":"2 52279  53.2158 137.4976 0004312  26.6780 333.4437 15.19042304 57151","APOAPSIS":"511.705","REF_FRAME":"TEME","MEAN_MOTION_DDOT":"0.0000000000000"},{"CENTER_NAME":"EARTH","TIME_SYSTEM":"UTC","SITE":"AFETR","RA_OF_ASC_NODE":"143.6582","MEAN_ELEMENT_THEORY":"SGP4","PERIAPSIS":"538.603","ARG_OF_PERICENTER":"100.3596","RCS_SIZE":"LARGE","PERIOD":"95.436","MEAN_MOTION_DOT":"0.00003424","EPOCH":"2023-04-24T11:40:43.613760","MEAN_MOTION":"15.08863576","OBJECT_NAME":"STARLINK-3764","INCLINATION":"53.2164","APOAPSIS":"540.744","REF_FRAME":"TEME","TLE_LINE2":"2 52280  53.2164 143.6582 0001547 100.3596 259.7571 15.08863576 55825","OBJECT_ID":"2022-041V","REV_AT_EPOCH":"5582","MEAN_MOTION_DDOT":"0.0000000000000","OBJECT_TYPE":"PAYLOAD","EPHEMERIS_TYPE":"0","BSTAR":"0.00023297000000","NORAD_CAT_ID":"52280","GP_ID":"230698866","FILE":"3893330","DECAY_DATE":null,"CLASSIFICATION_TYPE":"U","LAUNCH_DATE":"2022-04-21","ELEMENT_SET_NO":"999","SEMIMAJOR_AXIS":"6917.808","TLE_LINE1":"1 52280U 22041V   23114.48661590  .00003424  00000-0  23297-3 0  9995","ECCENTRICITY":"0.00015470","COUNTRY_CODE":"US","MEAN_ANOMALY":"259.7571"},{"PERIOD":"95.437","RCS_SIZE":"LARGE","MEAN_MOTION":"15.08845961","INCLINATION":"53.2168","OBJECT_NAME":"STARLINK-3779","MEAN_MOTION_DOT":"0.00000892","EPOCH":"2023-04-24T02:31:00.223680","SITE":"AFETR","RA_OF_ASC_NODE":"145.3730","CENTER_NAME":"EARTH","TIME_SYSTEM":"UTC","PERIAPSIS":"538.923","ARG_OF_PERICENTER":"93.0706","MEAN_ELEMENT_THEORY":"SGP4","ELEMENT_SET_NO":"999","SEMIMAJOR_AXIS":"6917.862","LAUNCH_DATE":"2022-04-21","CLASSIFICATION_TYPE":"U","MEAN_ANOMALY":"267.0419","TLE_LINE1":"1 52281U 22041W   23114.10486370  .00000892  00000-0  74121-4 0  9995","ECCENTRICITY":"0.00011620","COUNTRY_CODE":"US","MEAN_MOTION_DDOT":"0.0000000000000","REF_FRAME":"TEME","APOAPSIS":"540.531","TLE_LINE2":"2 52281  53.2168 145.3730 0001162  93.0706 267.0419 15.08845961 55762","OBJECT_ID":"2022-041W","REV_AT_EPOCH":"5576","DECAY_DATE":null,"FILE":"3893330","OBJECT_TYPE":"PAYLOAD","BSTAR":"0.00007412100000","NORAD_CAT_ID":"52281","EPHEMERIS_TYPE":"0","GP_ID":"230699116"},{"LAUNCH_DATE":"2022-04-21","CLASSIFICATION_TYPE":"U","SEMIMAJOR_AXIS":"6917.813","ELEMENT_SET_NO":"999","COUNTRY_CODE":"US","TLE_LINE1":"1 52282U 22041X   23114.54736911  .00001052  00000-0  84128-4 0  9990","ECCENTRICITY":"0.00012870","MEAN_ANOMALY":"268.0335","TLE_LINE2":"2 52282  53.2166 133.4006 0001287  92.0804 268.0335 15.08862022 55968","OBJECT_ID":"2022-041X","REV_AT_EPOCH":"5596","APOAPSIS":"540.568","REF_FRAME":"TEME","MEAN_MOTION_DDOT":"0.0000000000000","GP_ID":"230699865","NORAD_CAT_ID":"52282","OBJECT_TYPE":"PAYLOAD","BSTAR":"0.00008412800000","EPHEMERIS_TYPE":"0","FILE":"3893330","DECAY_DATE":null,"RCS_SIZE":"LARGE","PERIOD":"95.436","EPOCH":"2023-04-24T13:08:12.691104","MEAN_MOTION_DOT":"0.00001052","MEAN_MOTION":"15.08862022","INCLINATION":"53.2166","OBJECT_NAME":"STARLINK-3783","TIME_SYSTEM":"UTC","CENTER_NAME":"EARTH","RA_OF_ASC_NODE":"133.4006","SITE":"AFETR","PERIAPSIS":"538.788","ARG_OF_PERICENTER":"92.0804","MEAN_ELEMENT_THEORY":"SGP4"},{"TLE_LINE1":"1 52283U 22041Y   23114.56021754  .00009112  00000-0  58941-3 0  9993","ECCENTRICITY":"0.00014080","COUNTRY_CODE":"US","MEAN_ANOMALY":"266.5642","LAUNCH_DATE":"2022-04-21","CLASSIFICATION_TYPE":"U","ELEMENT_SET_NO":"999","SEMIMAJOR_AXIS":"6917.798","NORAD_CAT_ID":"52283","OBJECT_TYPE":"PAYLOAD","BSTAR":"0.00058941000000","EPHEMERIS_TYPE":"0","GP_ID":"230700617","FILE":"3893330","DECAY_DATE":null,"REF_FRAME":"TEME","APOAPSIS":"540.638","TLE_LINE2":"2 52283  53.2146 143.3325 0001408  93.5511 266.5642 15.08866795 55838","REV_AT_EPOCH":"5583","OBJECT_ID":"2022-041Y","MEAN_MOTION_DDOT":"0.0000000000000","MEAN_MOTION_DOT":"0.00009112","EPOCH":"2023-04-24T13:26:42.795456","MEAN_MOTION":"15.08866795","INCLINATION":"53.2146","OBJECT_NAME":"STARLINK-3789","RCS_SIZE":"LARGE","PERIOD":"95.436","ARG_OF_PERICENTER":"93.5511","PERIAPSIS":"538.689","MEAN_ELEMENT_THEORY":"SGP4","CENTER_NAME":"EARTH","TIME_SYSTEM":"UTC","SITE":"AFETR","RA_OF_ASC_NODE":"143.3325"},{"RA_OF_ASC_NODE":"137.8916","SITE":"AFETR","TIME_SYSTEM":"UTC","CENTER_NAME":"EARTH","PERIAPSIS":"539.008","MEAN_ELEMENT_THEORY":"SGP4","ARG_OF_PERICENTER":"82.1291","PERIOD":"95.438","RCS_SIZE":"LARGE","MEAN_MOTION":"15.08840803","INCLINATION":"53.2172","OBJECT_NAME":"STARLINK-3561","EPOCH":"2023-04-23T13:05:28.515552","MEAN_MOTION_DOT":"0.00000047","MEAN_MOTION_DDOT":"0.0000000000000","TLE_LINE2":"2 52284  53.2172 137.8916 0001063  82.1291 277.9822 15.08840803 55814","REV_AT_EPOCH":"5581","OBJECT_ID":"2022-041Z","APOAPSIS":"540.478","REF_FRAME":"TEME","DECAY_DATE":null,"FILE":"3892831","GP_ID":"230660679","OBJECT_TYPE":"PAYLOAD","BSTAR":"0.00002101900000","NORAD_CAT_ID":"52284","EPHEMERIS_TYPE":"0","SEMIMAJOR_AXIS":"6917.878","ELEMENT_SET_NO":"999","LAUNCH_DATE":"2022-04-21","CLASSIFICATION_TYPE":"U","MEAN_ANOMALY":"277.9822","COUNTRY_CODE":"US","TLE_LINE1":"1 52284U 22041Z   23113.54546893  .00000047  00000-0  21019-4 0  9992","ECCENTRICITY":"0.00010630"}];
